[
    {
        "name": "John Doe",
        "streetAddress1": "123 Main Street",
        "streetAddress2": "Suite 123",
        "city": "New York",
        "state": "NY",
        "zip": "10023"
    },
    {
        "name": "Jane Doe",
        "streetAddress1": "123 Main Street",
        "streetAddress2": "Suite 123",
        "city": "New York",
        "state": "NY",
        "zip": "10023"
    },
    {
        "name": "John Smith",
        "streetAddress1": "123 Main Street",
        "streetAddress2": "Suite 123",
        "city": "New York",
        "state": "NY",
        "zip": "10023"
    },
    {
        "name": "Jane Smith",
        "streetAddress1": "123 Main Street",
        "streetAddress2": "Suite 123",
        "city": "New York",
        "state": "NY",
        "zip": "10023"
    },
    {
        "name": "John Doe 2",
        "streetAddress1": "234 Main Street",
        "streetAddress2": "Suite 234",
        "city": "New York",
        "state": "NY",
        "zip": "10023"
    },
    {
        "name": "Jane Doe 2",
        "streetAddress1": "234 Main Street",
        "streetAddress2": "Suite 234",
        "city": "New York",
        "state": "NY",
        "zip": "10023"
    },
    {
        "name": "John Smith 2",
        "streetAddress1": "234 Main Street",
        "streetAddress2": "Suite 234",
        "city": "New York",
        "state": "NY",
        "zip": "10023"
    },
    {
        "name": "Jane Smith 2",
        "streetAddress1": "234 Main Street",
        "streetAddress2": "Suite 234",
        "city": "New York",
        "state": "NY",
        "zip": "10023"
    }
]